0 SATCOM C3
1 22117U 92060B   13281.05394123 -.00000118  00000-0  10000-3 0  8716
2 22117 007.9524 054.4791 0020110 265.6608 094.1468 00.97011568 76809
0 SATCOM C3
1 22117U 92060B   13283.11543878 -.00000153  00000-0  10000-3 0  8728
2 22117 007.9565 054.4572 0020067 265.7513 094.0496 00.97012018 76821
0 SATCOM C3
1 22117U 92060B   13287.23849335 -.00000128  00000-0  10000-3 0  8735
2 22117 007.9644 054.4138 0020053 266.1454 093.6614 00.97011175 76865
0 SATCOM C3
1 22117U 92060B   13290.33071943 -.00000078  00000-0  10000-3 0  8747
2 22117 007.9704 054.3823 0020005 266.3265 093.4468 00.97010262 76895
0 SATCOM C3
1 22117U 92060B   13293.42293747 -.00000072  00000-0  10000-3 0  8753
2 22117 007.9764 054.3497 0019891 266.5846 093.1509 00.97010404 76921
0 SATCOM C3
1 22117U 92060B   13293.42294046 -.00000072  00000-0  10000-3 0  8767
2 22117 007.9766 054.3499 0020250 265.0208 094.7118 00.97010425 76928
0 SATCOM C3
1 22117U 92060B   13294.45370090 -.00000085  00000-0  10000-3 0  8770
2 22117 007.9790 054.3387 0020712 264.0345 095.6897 00.97010742 76932
